[{"OBJECT_NAME":"STARLINK-3769","OBJECT_ID":"2022-041AR","EPOCH":"2026-03-09T11:00:51.391296","MEAN_MOTION":15.08838223,"ECCENTRICITY":0.00013316,"INCLINATION":53.2177,"RA_OF_ASC_NODE":100.1565,"ARG_OF_PERICENTER":96.7246,"MEAN_ANOMALY":263.3898,"EPHEMERIS_TYPE":0,"CLASSIFICATION_TYPE":"U","NORAD_CAT_ID":52300,"ELEMENT_SET_NO":999,"REV_AT_EPOCH":21569,"BSTAR":-1.1850674e-5,"MEAN_MOTION_DOT":-4.76e-6,"MEAN_MOTION_DDOT":0},{"OBJECT_NAME":"DISKSAT B","OBJECT_ID":"2025-305B","EPOCH":"2026-03-09T19:33:34.074144","MEAN_MOTION":15.07484556,"ECCENTRICITY":0.00037827,"INCLINATION":45.0018,"RA_OF_ASC_NODE":250.2098,"ARG_OF_PERICENTER":311.4052,"MEAN_ANOMALY":48.6498,"EPHEMERIS_TYPE":0,"CLASSIFICATION_TYPE":"U","NORAD_CAT_ID":67220,"ELEMENT_SET_NO":999,"REV_AT_EPOCH":1231,"BSTAR":0.00082400752,"MEAN_MOTION_DOT":0.00012481,"MEAN_MOTION_DDOT":0}]
