STARLINK-3769           
1 52300U 22041AR  26068.45892814 -.00000476  00000+0 -11851-4 0  9990
2 52300  53.2177 100.1565 0001331  96.7246 263.3898 15.08838223215699
DISKSAT B               
1 67220U 25305B   26068.81497770  .00012481  00000+0  82401-3 0  9990
2 67220  45.0018 250.2098 0003783 311.4052  48.6498 15.07484556 12311
